[{"OBJECT_NAME":"STARLINK-31190","OBJECT_ID":"2024-020X","EPOCH":"2026-01-03T03:37:53.521824","MEAN_MOTION":15.30190273,"ECCENTRICITY":0.00010761,"INCLINATION":53.161,"RA_OF_ASC_NODE":267.0664,"ARG_OF_PERICENTER":94.0384,"MEAN_ANOMALY":266.074,"EPHEMERIS_TYPE":0,"CLASSIFICATION_TYPE":"U","NORAD_CAT_ID":58897,"ELEMENT_SET_NO":999,"REV_AT_EPOCH":10803,"BSTAR":7.8750845e-5,"MEAN_MOTION_DOT":1.973e-5,"MEAN_MOTION_DDOT":0},{"OBJECT_NAME":"STARLINK-31317","OBJECT_ID":"2024-027A","EPOCH":"2026-01-03T01:44:45.371040","MEAN_MOTION":15.30199897,"ECCENTRICITY":0.00011678,"INCLINATION":53.16,"RA_OF_ASC_NODE":254.297,"ARG_OF_PERICENTER":101.9028,"MEAN_ANOMALY":258.2104,"EPHEMERIS_TYPE":0,"CLASSIFICATION_TYPE":"U","NORAD_CAT_ID":58931,"ELEMENT_SET_NO":999,"REV_AT_EPOCH":10712,"BSTAR":0.00010266649,"MEAN_MOTION_DOT":2.683e-5,"MEAN_MOTION_DDOT":0},{"OBJECT_NAME":"STARLINK-31378","OBJECT_ID":"2024-027B","EPOCH":"2026-01-03T09:39:34.945056","MEAN_MOTION":15.30199427,"ECCENTRICITY":0.0001297,"INCLINATION":53.1609,"RA_OF_ASC_NODE":252.8007,"ARG_OF_PERICENTER":131.1163,"MEAN_ANOMALY":228.995,"EPHEMERIS_TYPE":0,"CLASSIFICATION_TYPE":"U","NORAD_CAT_ID":58932,"ELEMENT_SET_NO":999,"REV_AT_EPOCH":10733,"BSTAR":1.4811e-5,"MEAN_MOTION_DOT":7.9e-7,"MEAN_MOTION_DDOT":0},{"OBJECT_NAME":"STARLINK-31350","OBJECT_ID":"2024-027C","EPOCH":"2026-01-03T09:25:54.226272","MEAN_MOTION":15.3019332,"ECCENTRICITY":7.39e-5,"INCLINATION":53.1598,"RA_OF_ASC_NODE":252.7425,"ARG_OF_PERICENTER":106.3317,"MEAN_ANOMALY":253.7765,"EPHEMERIS_TYPE":0,"CLASSIFICATION_TYPE":"U","NORAD_CAT_ID":58933,"ELEMENT_SET_NO":999,"REV_AT_EPOCH":10733,"BSTAR":0.00014926,"MEAN_MOTION_DOT":4.063e-5,"MEAN_MOTION_DDOT":0},{"OBJECT_NAME":"STARLINK-31337","OBJECT_ID":"2024-027D","EPOCH":"2026-01-03T09:21:20.715840","MEAN_MOTION":15.30196384,"ECCENTRICITY":0.0001222,"INCLINATION":53.1581,"RA_OF_ASC_NODE":252.7246,"ARG_OF_PERICENTER":121.1803,"MEAN_ANOMALY":238.9318,"EPHEMERIS_TYPE":0,"CLASSIFICATION_TYPE":"U","NORAD_CAT_ID":58934,"ELEMENT_SET_NO":999,"REV_AT_EPOCH":10733,"BSTAR":0.00011702,"MEAN_MOTION_DOT":3.108e-5,"MEAN_MOTION_DDOT":0},{"OBJECT_NAME":"STARLINK-31362","OBJECT_ID":"2024-027E","EPOCH":"2026-01-03T02:39:28.031904","MEAN_MOTION":15.30191205,"ECCENTRICITY":0.00011861,"INCLINATION":53.1592,"RA_OF_ASC_NODE":254.5293,"ARG_OF_PERICENTER":117.7513,"MEAN_ANOMALY":242.3608,"EPHEMERIS_TYPE":0,"CLASSIFICATION_TYPE":"U","NORAD_CAT_ID":58935,"ELEMENT_SET_NO":999,"REV_AT_EPOCH":10728,"BSTAR":4.2286464e-5,"MEAN_MOTION_DOT":8.93e-6,"MEAN_MOTION_DDOT":0},{"OBJECT_NAME":"STARLINK-31383","OBJECT_ID":"2024-027F","EPOCH":"2026-01-03T02:37:56.461728","MEAN_MOTION":15.30206618,"ECCENTRICITY":0.00011252,"INCLINATION":53.1582,"RA_OF_ASC_NODE":254.5249,"ARG_OF_PERICENTER":80.1061,"MEAN_ANOMALY":280.0066,"EPHEMERIS_TYPE":0,"CLASSIFICATION_TYPE":"U","NORAD_CAT_ID":58936,"ELEMENT_SET_NO":999,"REV_AT_EPOCH":10728,"BSTAR":0.00019483773,"MEAN_MOTION_DOT":5.417e-5,"MEAN_MOTION_DDOT":0},{"OBJECT_NAME":"STARLINK-31390","OBJECT_ID":"2024-027G","EPOCH":"2026-01-03T02:31:51.705120","MEAN_MOTION":15.30193358,"ECCENTRICITY":0.00010391,"INCLINATION":53.1597,"RA_OF_ASC_NODE":254.4982,"ARG_OF_PERICENTER":99.6432,"MEAN_ANOMALY":260.4686,"EPHEMERIS_TYPE":0,"CLASSIFICATION_TYPE":"U","NORAD_CAT_ID":58937,"ELEMENT_SET_NO":999,"REV_AT_EPOCH":10728,"BSTAR":5.6435872e-5,"MEAN_MOTION_DOT":1.312e-5,"MEAN_MOTION_DDOT":0},{"OBJECT_NAME":"STARLINK-31377","OBJECT_ID":"2024-027H","EPOCH":"2026-01-03T02:36:26.572896","MEAN_MOTION":15.30173314,"ECCENTRICITY":0.00010104,"INCLINATION":53.1594,"RA_OF_ASC_NODE":254.5163,"ARG_OF_PERICENTER":100.5853,"MEAN_ANOMALY":259.5261,"EPHEMERIS_TYPE":0,"CLASSIFICATION_TYPE":"U","NORAD_CAT_ID":58938,"ELEMENT_SET_NO":999,"REV_AT_EPOCH":10728,"BSTAR":-8.3364451e-5,"MEAN_MOTION_DOT":-2.825e-5,"MEAN_MOTION_DDOT":0},{"OBJECT_NAME":"STARLINK-31372","OBJECT_ID":"2024-027J","EPOCH":"2026-01-03T11:51:37.392192","MEAN_MOTION":15.30212788,"ECCENTRICITY":0.0001298,"INCLINATION":53.1576,"RA_OF_ASC_NODE":252.66,"ARG_OF_PERICENTER":92.274,"MEAN_ANOMALY":267.841,"EPHEMERIS_TYPE":0,"CLASSIFICATION_TYPE":"U","NORAD_CAT_ID":58939,"ELEMENT_SET_NO":999,"REV_AT_EPOCH":10734,"BSTAR":0.00095497,"MEAN_MOTION_DOT":0.00028042,"MEAN_MOTION_DDOT":0},{"OBJECT_NAME":"STARLINK-31371","OBJECT_ID":"2024-027K","EPOCH":"2026-01-03T02:25:47.267328","MEAN_MOTION":15.30187798,"ECCENTRICITY":0.00011455,"INCLINATION":53.1591,"RA_OF_ASC_NODE":254.4721,"ARG_OF_PERICENTER":118.5608,"MEAN_ANOMALY":241.5508,"EPHEMERIS_TYPE":0,"CLASSIFICATION_TYPE":"U","NORAD_CAT_ID":58940,"ELEMENT_SET_NO":999,"REV_AT_EPOCH":10728,"BSTAR":6.2794028e-5,"MEAN_MOTION_DOT":1.5e-5,"MEAN_MOTION_DDOT":0},{"OBJECT_NAME":"STARLINK-31345","OBJECT_ID":"2024-027L","EPOCH":"2026-01-03T09:24:23.469120","MEAN_MOTION":15.30195703,"ECCENTRICITY":0.0001039,"INCLINATION":53.1601,"RA_OF_ASC_NODE":252.7354,"ARG_OF_PERICENTER":109.467,"MEAN_ANOMALY":250.6443,"EPHEMERIS_TYPE":0,"CLASSIFICATION_TYPE":"U","NORAD_CAT_ID":58941,"ELEMENT_SET_NO":999,"REV_AT_EPOCH":10733,"BSTAR":3.4546e-5,"MEAN_MOTION_DOT":6.64e-6,"MEAN_MOTION_DDOT":0},{"OBJECT_NAME":"STARLINK-31354","OBJECT_ID":"2024-027M","EPOCH":"2026-01-02T23:14:38.544288","MEAN_MOTION":15.30191093,"ECCENTRICITY":0.0001238,"INCLINATION":53.1594,"RA_OF_ASC_NODE":255.0643,"ARG_OF_PERICENTER":95.9721,"MEAN_ANOMALY":264.1421,"EPHEMERIS_TYPE":0,"CLASSIFICATION_TYPE":"U","NORAD_CAT_ID":58942,"ELEMENT_SET_NO":999,"REV_AT_EPOCH":10726,"BSTAR":1.7546e-5,"MEAN_MOTION_DOT":1.6e-6,"MEAN_MOTION_DDOT":0},{"OBJECT_NAME":"STARLINK-31346","OBJECT_ID":"2024-027N","EPOCH":"2026-01-03T09:35:46.916448","MEAN_MOTION":15.30192062,"ECCENTRICITY":0.0001031,"INCLINATION":53.1594,"RA_OF_ASC_NODE":250.6654,"ARG_OF_PERICENTER":107.1856,"MEAN_ANOMALY":252.9258,"EPHEMERIS_TYPE":0,"CLASSIFICATION_TYPE":"U","NORAD_CAT_ID":58943,"ELEMENT_SET_NO":999,"REV_AT_EPOCH":10736,"BSTAR":2.8257e-5,"MEAN_MOTION_DOT":4.78e-6,"MEAN_MOTION_DDOT":0},{"OBJECT_NAME":"STARLINK-31336","OBJECT_ID":"2024-027P","EPOCH":"2026-01-03T02:34:54.069600","MEAN_MOTION":15.30196194,"ECCENTRICITY":0.00011425,"INCLINATION":53.1597,"RA_OF_ASC_NODE":254.5093,"ARG_OF_PERICENTER":99.1107,"MEAN_ANOMALY":261.0023,"EPHEMERIS_TYPE":0,"CLASSIFICATION_TYPE":"U","NORAD_CAT_ID":58944,"ELEMENT_SET_NO":999,"REV_AT_EPOCH":10727,"BSTAR":1.9547343e-5,"MEAN_MOTION_DOT":2.2e-6,"MEAN_MOTION_DDOT":0},{"OBJECT_NAME":"STARLINK-31359","OBJECT_ID":"2024-027Q","EPOCH":"2026-01-02T21:24:29.269152","MEAN_MOTION":15.3019163,"ECCENTRICITY":8.77e-5,"INCLINATION":53.1598,"RA_OF_ASC_NODE":216.812,"ARG_OF_PERICENTER":96.8447,"MEAN_ANOMALY":263.2653,"EPHEMERIS_TYPE":0,"CLASSIFICATION_TYPE":"U","NORAD_CAT_ID":58945,"ELEMENT_SET_NO":999,"REV_AT_EPOCH":10780,"BSTAR":3.4816e-5,"MEAN_MOTION_DOT":6.72e-6,"MEAN_MOTION_DDOT":0}]
