STARLINK-31190          
1 58897U 24020X   26003.15131391  .00001973  00000+0  78751-4 0  9991
2 58897  53.1610 267.0664 0001076  94.0384 266.0740 15.30190273108036
STARLINK-31317          
1 58931U 24027A   26003.07274735  .00002683  00000+0  10267-3 0  9994
2 58931  53.1600 254.2970 0001167 101.9028 258.2104 15.30199897107123
STARLINK-31378          
1 58932U 24027B   26003.40248779  .00000079  00000+0  14811-4 0  9998
2 58932  53.1609 252.8007 0001297 131.1163 228.9950 15.30199427107332
STARLINK-31350          
1 58933U 24027C   26003.39298873  .00004063  00000+0  14926-3 0  9990
2 58933  53.1598 252.7425 0000739 106.3317 253.7765 15.30193320107334
STARLINK-31337          
1 58934U 24027D   26003.38982310  .00003108  00000+0  11702-3 0  9994
2 58934  53.1581 252.7246 0001222 121.1803 238.9318 15.30196384107333
STARLINK-31362          
1 58935U 24027E   26003.11074111  .00000893  00000+0  42286-4 0  9997
2 58935  53.1592 254.5293 0001186 117.7513 242.3608 15.30191205107288
STARLINK-31383          
1 58936U 24027F   26003.10968127  .00005417  00000+0  19484-3 0  9996
2 58936  53.1582 254.5249 0001125  80.1061 280.0066 15.30206618107285
STARLINK-31390          
1 58937U 24027G   26003.10545955  .00001312  00000+0  56436-4 0  9996
2 58937  53.1597 254.4982 0001039  99.6432 260.4686 15.30193358107282
STARLINK-31377          
1 58938U 24027H   26003.10864089 -.00002825  00000+0 -83364-4 0  9991
2 58938  53.1594 254.5163 0001010 100.5853 259.5261 15.30173314107288
STARLINK-31372          
1 58939U 24027J   26003.49418278  .00028042  00000+0  95497-3 0  9995
2 58939  53.1576 252.6600 0001298  92.2740 267.8410 15.30212788107348
STARLINK-31371          
1 58940U 24027K   26003.10124152  .00001500  00000+0  62794-4 0  9995
2 58940  53.1591 254.4721 0001145 118.5608 241.5508 15.30187798107289
STARLINK-31345          
1 58941U 24027L   26003.39193830  .00000664  00000+0  34546-4 0  9990
2 58941  53.1601 252.7354 0001039 109.4670 250.6443 15.30195703107335
STARLINK-31354          
1 58942U 24027M   26002.96850167  .00000160  00000+0  17546-4 0  9998
2 58942  53.1594 255.0643 0001238  95.9721 264.1421 15.30191093107267
STARLINK-31346          
1 58943U 24027N   26003.39984857  .00000478  00000+0  28257-4 0  9994
2 58943  53.1594 250.6654 0001031 107.1856 252.9258 15.30192062107368
STARLINK-31336          
1 58944U 24027P   26003.10757025  .00000220  00000+0  19547-4 0  9996
2 58944  53.1597 254.5093 0001142  99.1107 261.0023 15.30196194107275
STARLINK-31359          
1 58945U 24027Q   26002.89200543  .00000672  00000+0  34816-4 0  9997
2 58945  53.1598 216.8120 0000877  96.8447 263.2653 15.30191630107806
